CCSDS_OMM_VERS = 2.0
CREATION_DATE  = 
ORIGINATOR     = 

OBJECT_NAME    = COSMOS 2242
OBJECT_ID      = 1993-024A
CENTER_NAME    = EARTH
REF_FRAME      = TEME
TIME_SYSTEM    = UTC
MEAN_ELEMENT_THEORY = SGP/SGP4

EPOCH          = 2026-03-08T15:11:30.170112
MEAN_MOTION    = 14.96544338
ECCENTRICITY   = .00152405
INCLINATION    = 82.5155
RA_OF_ASC_NODE = 267.7274
ARG_OF_PERICENTER = 312.7128
MEAN_ANOMALY   = 47.2810

EPHEMERIS_TYPE = 0
CLASSIFICATION_TYPE = U
NORAD_CAT_ID   = 22626
ELEMENT_SET_NO = 999
REV_AT_EPOCH   = 78023
BSTAR          = .26125408E-3
MEAN_MOTION_DOT = .3002E-4
MEAN_MOTION_DDOT = 0

CCSDS_OMM_VERS = 2.0
CREATION_DATE  = 
ORIGINATOR     = 

OBJECT_NAME    = SL-16 R/B
OBJECT_ID      = 1993-059B
CENTER_NAME    = EARTH
REF_FRAME      = TEME
TIME_SYSTEM    = UTC
MEAN_ELEMENT_THEORY = SGP/SGP4

EPOCH          = 2026-03-08T13:25:27.553152
MEAN_MOTION    = 14.17231804
ECCENTRICITY   = .00185814
INCLINATION    = 70.9926
RA_OF_ASC_NODE = 13.5091
ARG_OF_PERICENTER = 218.1681
MEAN_ANOMALY   = 141.8128

EPHEMERIS_TYPE = 0
CLASSIFICATION_TYPE = U
NORAD_CAT_ID   = 22803
ELEMENT_SET_NO = 999
REV_AT_EPOCH   = 67937
BSTAR          = -.54694394E-4
MEAN_MOTION_DOT = -.159E-5
MEAN_MOTION_DDOT = 0

CCSDS_OMM_VERS = 2.0
CREATION_DATE  = 
ORIGINATOR     = 

OBJECT_NAME    = ARIANE 40 R/B
OBJECT_ID      = 1993-061H
CENTER_NAME    = EARTH
REF_FRAME      = TEME
TIME_SYSTEM    = UTC
MEAN_ELEMENT_THEORY = SGP/SGP4

EPOCH          = 2026-03-08T03:53:42.968832
MEAN_MOTION    = 14.32860212
ECCENTRICITY   = .00095616
INCLINATION    = 98.4918
RA_OF_ASC_NODE = 136.0801
ARG_OF_PERICENTER = 290.2132
MEAN_ANOMALY   = 69.8024

EPHEMERIS_TYPE = 0
CLASSIFICATION_TYPE = U
NORAD_CAT_ID   = 22830
ELEMENT_SET_NO = 999
REV_AT_EPOCH   = 69388
BSTAR          = .12002996E-3
MEAN_MOTION_DOT = .284E-5
MEAN_MOTION_DDOT = 0

CCSDS_OMM_VERS = 2.0
CREATION_DATE  = 
ORIGINATOR     = 

OBJECT_NAME    = COSMOS 2278
OBJECT_ID      = 1994-023A
CENTER_NAME    = EARTH
REF_FRAME      = TEME
TIME_SYSTEM    = UTC
MEAN_ELEMENT_THEORY = SGP/SGP4

EPOCH          = 2026-03-08T14:34:55.090848
MEAN_MOTION    = 14.14378603
ECCENTRICITY   = .00079457
INCLINATION    = 71.0551
RA_OF_ASC_NODE = 177.3608
ARG_OF_PERICENTER = 15.4087
MEAN_ANOMALY   = 344.7276

EPHEMERIS_TYPE = 0
CLASSIFICATION_TYPE = U
NORAD_CAT_ID   = 23087
ELEMENT_SET_NO = 999
REV_AT_EPOCH   = 64465
BSTAR          = .11638833E-3
MEAN_MOTION_DOT = .176E-5
MEAN_MOTION_DDOT = 0

CCSDS_OMM_VERS = 2.0
CREATION_DATE  = 
ORIGINATOR     = 

OBJECT_NAME    = SL-16 R/B
OBJECT_ID      = 1994-023B
CENTER_NAME    = EARTH
REF_FRAME      = TEME
TIME_SYSTEM    = UTC
MEAN_ELEMENT_THEORY = SGP/SGP4

EPOCH          = 2026-03-08T10:37:07.940064
MEAN_MOTION    = 14.15012385
ECCENTRICITY   = .0005717
INCLINATION    = 70.9986
RA_OF_ASC_NODE = 73.5067
ARG_OF_PERICENTER = 286.8109
MEAN_ANOMALY   = 73.2387

EPHEMERIS_TYPE = 0
CLASSIFICATION_TYPE = U
NORAD_CAT_ID   = 23088
ELEMENT_SET_NO = 999
REV_AT_EPOCH   = 64591
BSTAR          = -.88597319E-4
MEAN_MOTION_DOT = -.219E-5
MEAN_MOTION_DDOT = 0

CCSDS_OMM_VERS = 2.0
CREATION_DATE  = 
ORIGINATOR     = 

OBJECT_NAME    = SL-16 R/B
OBJECT_ID      = 1994-074B
CENTER_NAME    = EARTH
REF_FRAME      = TEME
TIME_SYSTEM    = UTC
MEAN_ELEMENT_THEORY = SGP/SGP4

EPOCH          = 2026-03-08T14:04:40.004832
MEAN_MOTION    = 14.79406925
ECCENTRICITY   = .00056936
INCLINATION    = 97.7111
RA_OF_ASC_NODE = 98.4490
ARG_OF_PERICENTER = 214.5903
MEAN_ANOMALY   = 263.0226

EPHEMERIS_TYPE = 0
CLASSIFICATION_TYPE = U
NORAD_CAT_ID   = 23343
ELEMENT_SET_NO = 999
REV_AT_EPOCH   = 68708
BSTAR          = .99013773E-4
MEAN_MOTION_DOT = .689E-5
MEAN_MOTION_DDOT = 0

CCSDS_OMM_VERS = 2.0
CREATION_DATE  = 
ORIGINATOR     = 

OBJECT_NAME    = SL-16 R/B
OBJECT_ID      = 1994-077B
CENTER_NAME    = EARTH
REF_FRAME      = TEME
TIME_SYSTEM    = UTC
MEAN_ELEMENT_THEORY = SGP/SGP4

EPOCH          = 2026-03-08T11:53:07.889280
MEAN_MOTION    = 14.15561136
ECCENTRICITY   = .00031622
INCLINATION    = 70.9853
RA_OF_ASC_NODE = 355.0017
ARG_OF_PERICENTER = 213.7146
MEAN_ANOMALY   = 146.3776

EPHEMERIS_TYPE = 0
CLASSIFICATION_TYPE = U
NORAD_CAT_ID   = 23405
ELEMENT_SET_NO = 999
REV_AT_EPOCH   = 61606
BSTAR          = -.2622815E-4
MEAN_MOTION_DOT = -.99E-6
MEAN_MOTION_DDOT = 0

CCSDS_OMM_VERS = 2.0
CREATION_DATE  = 
ORIGINATOR     = 

OBJECT_NAME    = ARIANE 40+ R/B
OBJECT_ID      = 1995-021B
CENTER_NAME    = EARTH
REF_FRAME      = TEME
TIME_SYSTEM    = UTC
MEAN_ELEMENT_THEORY = SGP/SGP4

EPOCH          = 2026-03-08T15:43:01.384896
MEAN_MOTION    = 14.39771887
ECCENTRICITY   = .00076165
INCLINATION    = 98.4499
RA_OF_ASC_NODE = 139.1516
ARG_OF_PERICENTER = 139.1413
MEAN_ANOMALY   = 22.9399

EPHEMERIS_TYPE = 0
CLASSIFICATION_TYPE = U
NORAD_CAT_ID   = 23561
ELEMENT_SET_NO = 999
REV_AT_EPOCH   = 61909
BSTAR          = .14771389E-3
MEAN_MOTION_DOT = .42E-5
MEAN_MOTION_DDOT = 0

CCSDS_OMM_VERS = 2.0
CREATION_DATE  = 
ORIGINATOR     = 

OBJECT_NAME    = SL-16 R/B
OBJECT_ID      = 1995-058B
CENTER_NAME    = EARTH
REF_FRAME      = TEME
TIME_SYSTEM    = UTC
MEAN_ELEMENT_THEORY = SGP/SGP4

EPOCH          = 2026-03-08T13:44:53.409696
MEAN_MOTION    = 14.15494520
ECCENTRICITY   = .00108439
INCLINATION    = 71.0218
RA_OF_ASC_NODE = 182.5994
ARG_OF_PERICENTER = 127.8668
MEAN_ANOMALY   = 232.3438

EPHEMERIS_TYPE = 0
CLASSIFICATION_TYPE = U
NORAD_CAT_ID   = 23705
ELEMENT_SET_NO = 999
REV_AT_EPOCH   = 56769
BSTAR          = .16719192E-3
MEAN_MOTION_DOT = .279E-5
MEAN_MOTION_DDOT = 0

CCSDS_OMM_VERS = 2.0
CREATION_DATE  = 
ORIGINATOR     = 

OBJECT_NAME    = SL-16 R/B
OBJECT_ID      = 1996-051B
CENTER_NAME    = EARTH
REF_FRAME      = TEME
TIME_SYSTEM    = UTC
MEAN_ELEMENT_THEORY = SGP/SGP4

EPOCH          = 2026-03-08T14:35:25.567584
MEAN_MOTION    = 14.12415441
ECCENTRICITY   = .00151741
INCLINATION    = 70.7603
RA_OF_ASC_NODE = 177.5282
ARG_OF_PERICENTER = 149.6177
MEAN_ANOMALY   = 210.5826

EPHEMERIS_TYPE = 0
CLASSIFICATION_TYPE = U
NORAD_CAT_ID   = 24298
ELEMENT_SET_NO = 999
REV_AT_EPOCH   = 52149
BSTAR          = .97245429E-4
MEAN_MOTION_DOT = .13E-5
MEAN_MOTION_DDOT = 0

CCSDS_OMM_VERS = 2.0
CREATION_DATE  = 
ORIGINATOR     = 

OBJECT_NAME    = ORBVIEW 2 (SEASTAR)
OBJECT_ID      = 1997-037A
CENTER_NAME    = EARTH
REF_FRAME      = TEME
TIME_SYSTEM    = UTC
MEAN_ELEMENT_THEORY = SGP/SGP4

EPOCH          = 2026-03-08T10:36:34.218144
MEAN_MOTION    = 14.35494256
ECCENTRICITY   = .00031149
INCLINATION    = 98.8565
RA_OF_ASC_NODE = 231.7208
ARG_OF_PERICENTER = 74.5185
MEAN_ANOMALY   = 285.6343

EPHEMERIS_TYPE = 0
CLASSIFICATION_TYPE = U
NORAD_CAT_ID   = 24883
ELEMENT_SET_NO = 999
REV_AT_EPOCH   = 50829
BSTAR          = .17797609E-3
MEAN_MOTION_DOT = .465E-5
MEAN_MOTION_DDOT = 0

CCSDS_OMM_VERS = 2.0
CREATION_DATE  = 
ORIGINATOR     = 

OBJECT_NAME    = SL-16 R/B
OBJECT_ID      = 1998-043G
CENTER_NAME    = EARTH
REF_FRAME      = TEME
TIME_SYSTEM    = UTC
MEAN_ELEMENT_THEORY = SGP/SGP4

EPOCH          = 2026-03-08T11:14:52.135008
MEAN_MOTION    = 14.26049505
ECCENTRICITY   = .00102833
INCLINATION    = 98.8251
RA_OF_ASC_NODE = 20.8234
ARG_OF_PERICENTER = 23.8724
MEAN_ANOMALY   = 336.2930

EPHEMERIS_TYPE = 0
CLASSIFICATION_TYPE = U
NORAD_CAT_ID   = 25400
ELEMENT_SET_NO = 999
REV_AT_EPOCH   = 43881
BSTAR          = .6610468E-4
MEAN_MOTION_DOT = .113E-5
MEAN_MOTION_DDOT = 0

